start=new Date('2023-01-14T00:00:00.000Z').valueOf();
sats=[{"REV_AT_EPOCH":"17475","CLASSIFICATION_TYPE":"U","OBJECT_NAME":"STARLINK-1055","TLE_LINE1":"1 44760U 19074AZ  23013.92562313  .00033315  00000-0  22026-2 0  9991","GP_ID":"222970036","BSTAR":"0.00220260000000","APOAPSIS":"546.934","COUNTRY_CODE":"US","LAUNCH_DATE":"2019-11-11","INCLINATION":"53.0526","NORAD_CAT_ID":"44760","TLE_LINE2":"2 44760  53.0526 352.5749 0002711  82.2059 277.9238 15.07104010174757","PERIOD":"95.547","MEAN_MOTION_DOT":"0.00033315","OBJECT_ID":"2019-074AZ","FILE":"3743722","DECAY_DATE":null,"SITE":"AFETR","OBJECT_TYPE":"PAYLOAD","MEAN_MOTION":"15.07104010","EPOCH":"2023-01-13T22:12:53.838432","REF_FRAME":"TEME","PERIAPSIS":"543.180","MEAN_ELEMENT_THEORY":"SGP4","RA_OF_ASC_NODE":"352.5749","ARG_OF_PERICENTER":"82.2059","MEAN_ANOMALY":"277.9238","ELEMENT_SET_NO":"999","SEMIMAJOR_AXIS":"6923.192","MEAN_MOTION_DDOT":"0.0000000000000","EPHEMERIS_TYPE":"0","RCS_SIZE":"LARGE","CENTER_NAME":"EARTH","TIME_SYSTEM":"UTC","ECCENTRICITY":"0.00027110"},{"TLE_LINE2":"2 44761  53.0550 353.7422 0002195  46.7205 313.3967 15.06397548174719","OBJECT_ID":"2019-074BA","PERIOD":"95.592","MEAN_MOTION_DOT":"0.00000320","NORAD_CAT_ID":"44761","INCLINATION":"53.0550","MEAN_MOTION":"15.06397548","EPOCH":"2023-01-13T16:11:21.710976","OBJECT_TYPE":"PAYLOAD","SITE":"AFETR","DECAY_DATE":null,"FILE":"3743722","GP_ID":"222970286","BSTAR":"0.00004041400000","TLE_LINE1":"1 44761U 19074BA  23013.67455684  .00000320  00000-0  40414-4 0  9999","OBJECT_NAME":"STARLINK-1056","CLASSIFICATION_TYPE":"U","REV_AT_EPOCH":"17471","LAUNCH_DATE":"2019-11-11","COUNTRY_CODE":"US","APOAPSIS":"548.741","CENTER_NAME":"EARTH","RCS_SIZE":"LARGE","ECCENTRICITY":"0.00021950","TIME_SYSTEM":"UTC","PERIAPSIS":"545.701","REF_FRAME":"TEME","MEAN_ELEMENT_THEORY":"SGP4","MEAN_MOTION_DDOT":"0.0000000000000","SEMIMAJOR_AXIS":"6925.356","EPHEMERIS_TYPE":"0","ELEMENT_SET_NO":"999","MEAN_ANOMALY":"313.3967","ARG_OF_PERICENTER":"46.7205","RA_OF_ASC_NODE":"353.7422"},{"DECAY_DATE":null,"FILE":"3743722","SITE":"AFETR","OBJECT_TYPE":"PAYLOAD","EPOCH":"2023-01-13T14:38:30.118848","MEAN_MOTION":"15.06400646","INCLINATION":"53.0553","NORAD_CAT_ID":"44762","OBJECT_ID":"2019-074BB","TLE_LINE2":"2 44762  53.0553 334.0193 0001438  76.5740 283.5409 15.06400646174975","PERIOD":"95.592","MEAN_MOTION_DOT":"-0.00002605","APOAPSIS":"548.207","LAUNCH_DATE":"2019-11-11","COUNTRY_CODE":"US","CLASSIFICATION_TYPE":"U","REV_AT_EPOCH":"17497","OBJECT_NAME":"STARLINK-1057","TLE_LINE1":"1 44762U 19074BB  23013.61007082 -.00002605  00000-0 -15606-3 0  9993","BSTAR":"-0.00015606000000","GP_ID":"222971031","TIME_SYSTEM":"UTC","ECCENTRICITY":"0.00014380","RCS_SIZE":"LARGE","CENTER_NAME":"EARTH","RA_OF_ASC_NODE":"334.0193","ARG_OF_PERICENTER":"76.5740","MEAN_ANOMALY":"283.5409","ELEMENT_SET_NO":"999","EPHEMERIS_TYPE":"0","SEMIMAJOR_AXIS":"6925.347","MEAN_MOTION_DDOT":"0.0000000000000","MEAN_ELEMENT_THEORY":"SGP4","PERIAPSIS":"546.216","REF_FRAME":"TEME"},{"SITE":"AFETR","FILE":"3743722","DECAY_DATE":null,"MEAN_MOTION":"15.06398987","EPOCH":"2023-01-13T15:06:20.347488","OBJECT_TYPE":"PAYLOAD","INCLINATION":"53.0552","TLE_LINE2":"2 44763  53.0552 353.9207 0001622  77.9505 282.1666 15.06398987174705","PERIOD":"95.592","OBJECT_ID":"2019-074BC","MEAN_MOTION_DOT":"0.00008722","NORAD_CAT_ID":"44763","APOAPSIS":"548.340","LAUNCH_DATE":"2019-11-11","COUNTRY_CODE":"US","TLE_LINE1":"1 44763U 19074BC  23013.62940217  .00008722  00000-0  60375-3 0  9998","CLASSIFICATION_TYPE":"U","OBJECT_NAME":"STARLINK-1058","REV_AT_EPOCH":"17470","GP_ID":"222969287","BSTAR":"0.00060375000000","TIME_SYSTEM":"UTC","ECCENTRICITY":"0.00016220","RCS_SIZE":"LARGE","CENTER_NAME":"EARTH","MEAN_ANOMALY":"282.1666","ARG_OF_PERICENTER":"77.9505","RA_OF_ASC_NODE":"353.9207","SEMIMAJOR_AXIS":"6925.352","MEAN_MOTION_DDOT":"0.0000000000000","EPHEMERIS_TYPE":"0","ELEMENT_SET_NO":"999","PERIAPSIS":"546.093","REF_FRAME":"TEME","MEAN_ELEMENT_THEORY":"SGP4"},{"OBJECT_NAME":"STARLINK-1059","CLASSIFICATION_TYPE":"U","REV_AT_EPOCH":"17503","TLE_LINE1":"1 44764U 19074BD  23013.59697912  .00045007  00000-0  25027-2 0  9997","BSTAR":"0.00250270000000","GP_ID":"222937264","APOAPSIS":"527.647","LAUNCH_DATE":"2019-11-11","COUNTRY_CODE":"US","INCLINATION":"53.0566","NORAD_CAT_ID":"44764","MEAN_MOTION_DOT":"0.00045007","TLE_LINE2":"2 44764  53.0566 329.8518 0001998  28.5728 331.5373 15.13260228175038","PERIOD":"95.159","OBJECT_ID":"2019-074BD","DECAY_DATE":null,"FILE":"3743417","SITE":"AFETR","OBJECT_TYPE":"PAYLOAD","EPOCH":"2023-01-13T14:19:38.995968","MEAN_MOTION":"15.13260228","MEAN_ELEMENT_THEORY":"SGP4","REF_FRAME":"TEME","PERIAPSIS":"524.888","RA_OF_ASC_NODE":"329.8518","MEAN_ANOMALY":"331.5373","ARG_OF_PERICENTER":"28.5728","ELEMENT_SET_NO":"999","EPHEMERIS_TYPE":"0","MEAN_MOTION_DDOT":"0.0000000000000","SEMIMAJOR_AXIS":"6904.402","RCS_SIZE":"LARGE","CENTER_NAME":"EARTH","TIME_SYSTEM":"UTC","ECCENTRICITY":"0.00019980"},{"DECAY_DATE":null,"FILE":"3743722","SITE":"AFETR","OBJECT_TYPE":"PAYLOAD","EPOCH":"2023-01-13T21:21:55.442592","MEAN_MOTION":"15.06367516","INCLINATION":"53.0537","NORAD_CAT_ID":"44765","TLE_LINE2":"2 44765  53.0537 332.7639 0000891  81.6804 278.4286 15.06367516175010","MEAN_MOTION_DOT":"-0.00000074","PERIOD":"95.594","OBJECT_ID":"2019-074BE","APOAPSIS":"547.930","LAUNCH_DATE":"2019-11-11","COUNTRY_CODE":"US","OBJECT_NAME":"STARLINK-1060","REV_AT_EPOCH":"17501","CLASSIFICATION_TYPE":"U","TLE_LINE1":"1 44765U 19074BE  23013.89022503 -.00000074  00000-0  13899-4 0  9991","BSTAR":"0.00001389900000","GP_ID":"222970785","TIME_SYSTEM":"UTC","ECCENTRICITY":"0.00008910","RCS_SIZE":"LARGE","CENTER_NAME":"EARTH","RA_OF_ASC_NODE":"332.7639","MEAN_ANOMALY":"278.4286","ARG_OF_PERICENTER":"81.6804","ELEMENT_SET_NO":"999","EPHEMERIS_TYPE":"0","MEAN_MOTION_DDOT":"0.0000000000000","SEMIMAJOR_AXIS":"6925.448","MEAN_ELEMENT_THEORY":"SGP4","REF_FRAME":"TEME","PERIAPSIS":"546.696"},{"TLE_LINE1":"1 44766U 19074BF  23013.95470420 -.00000645  00000-0 -24426-4 0  9997","REV_AT_EPOCH":"17475","CLASSIFICATION_TYPE":"U","OBJECT_NAME":"STARLINK-1061","BSTAR":"-0.00002442600000","GP_ID":"222970532","APOAPSIS":"548.287","LAUNCH_DATE":"2019-11-11","COUNTRY_CODE":"US","INCLINATION":"53.0535","MEAN_MOTION_DOT":"-0.00000645","TLE_LINE2":"2 44766  53.0535 352.4704 0001501  89.4752 270.6409 15.06388873174758","PERIOD":"95.593","OBJECT_ID":"2019-074BF","NORAD_CAT_ID":"44766","SITE":"AFETR","FILE":"3743722","DECAY_DATE":null,"EPOCH":"2023-01-13T22:54:46.442880","MEAN_MOTION":"15.06388873","OBJECT_TYPE":"PAYLOAD","MEAN_ELEMENT_THEORY":"SGP4","PERIAPSIS":"546.208","REF_FRAME":"TEME","MEAN_ANOMALY":"270.6409","ARG_OF_PERICENTER":"89.4752","RA_OF_ASC_NODE":"352.4704","EPHEMERIS_TYPE":"0","SEMIMAJOR_AXIS":"6925.383","MEAN_MOTION_DDOT":"0.0000000000000","ELEMENT_SET_NO":"999","RCS_SIZE":"LARGE","CENTER_NAME":"EARTH","TIME_SYSTEM":"UTC","ECCENTRICITY":"0.00015010"},{"CENTER_NAME":"EARTH","RCS_SIZE":"LARGE","ECCENTRICITY":"0.00015830","TIME_SYSTEM":"UTC","PERIAPSIS":"546.128","REF_FRAME":"TEME","MEAN_ELEMENT_THEORY":"SGP4","ELEMENT_SET_NO":"999","MEAN_MOTION_DDOT":"0.0000000000000","SEMIMAJOR_AXIS":"6925.359","EPHEMERIS_TYPE":"0","RA_OF_ASC_NODE":"352.5019","ARG_OF_PERICENTER":"95.8875","MEAN_ANOMALY":"264.2295","NORAD_CAT_ID":"44767","PERIOD":"95.592","TLE_LINE2":"2 44767  53.0528 352.5019 0001583  95.8875 264.2295 15.06396538174757","MEAN_MOTION_DOT":"0.00000099","OBJECT_ID":"2019-074BG","INCLINATION":"53.0528","OBJECT_TYPE":"PAYLOAD","MEAN_MOTION":"15.06396538","EPOCH":"2023-01-13T22:42:48.522816","DECAY_DATE":null,"FILE":"3743722","SITE":"AFETR","GP_ID":"222969787","BSTAR":"0.00002554000000","REV_AT_EPOCH":"17475","OBJECT_NAME":"STARLINK-1062","CLASSIFICATION_TYPE":"U","TLE_LINE1":"1 44767U 19074BG  23013.94639494  .00000099  00000-0  25540-4 0  9994","LAUNCH_DATE":"2019-11-11","COUNTRY_CODE":"US","APOAPSIS":"548.320"},{"INCLINATION":"53.0556","NORAD_CAT_ID":"44768","TLE_LINE2":"2 44768  53.0556 353.8928 0001495  75.2407 284.8748 15.06405660174711","PERIOD":"95.592","OBJECT_ID":"2019-074BH","MEAN_MOTION_DOT":"0.00011631","FILE":"3743722","DECAY_DATE":null,"SITE":"AFETR","OBJECT_TYPE":"PAYLOAD","EPOCH":"2023-01-13T15:18:18.950112","MEAN_MOTION":"15.06405660","OBJECT_NAME":"STARLINK-1063","CLASSIFICATION_TYPE":"U","REV_AT_EPOCH":"17471","TLE_LINE1":"1 44768U 19074BH  23013.63771933  .00011631  00000-0  79829-3 0  9998","BSTAR":"0.00079829000000","GP_ID":"222970037","APOAPSIS":"548.232","COUNTRY_CODE":"US","LAUNCH_DATE":"2019-11-11","RCS_SIZE":"LARGE","CENTER_NAME":"EARTH","TIME_SYSTEM":"UTC","ECCENTRICITY":"0.00014950","MEAN_ELEMENT_THEORY":"SGP4","PERIAPSIS":"546.161","REF_FRAME":"TEME","RA_OF_ASC_NODE":"353.8928","ARG_OF_PERICENTER":"75.2407","MEAN_ANOMALY":"284.8748","ELEMENT_SET_NO":"999","EPHEMERIS_TYPE":"0","SEMIMAJOR_AXIS":"6925.331","MEAN_MOTION_DDOT":"0.0000000000000"},{"CENTER_NAME":"EARTH","RCS_SIZE":"LARGE","ECCENTRICITY":"0.00036640","TIME_SYSTEM":"UTC","MEAN_ELEMENT_THEORY":"SGP4","PERIAPSIS":"470.361","REF_FRAME":"TEME","ELEMENT_SET_NO":"999","EPHEMERIS_TYPE":"0","SEMIMAJOR_AXIS":"6851.006","MEAN_MOTION_DDOT":"0.0000000000000","RA_OF_ASC_NODE":"317.5161","ARG_OF_PERICENTER":"100.6661","MEAN_ANOMALY":"259.4751","NORAD_CAT_ID":"44770","TLE_LINE2":"2 44770  53.0015 317.5161 0003664 100.6661 259.4751 15.30986125175120","MEAN_MOTION_DOT":"0.00100049","PERIOD":"94.057","OBJECT_ID":"2019-074BK","INCLINATION":"53.0015","OBJECT_TYPE":"PAYLOAD","EPOCH":"2023-01-13T03:10:05.111904","MEAN_MOTION":"15.30986125","FILE":"3743417","DECAY_DATE":null,"SITE":"AFETR","BSTAR":"0.00326380000000","GP_ID":"222937014","CLASSIFICATION_TYPE":"U","OBJECT_NAME":"STARLINK-1065","REV_AT_EPOCH":"17512","TLE_LINE1":"1 44770U 19074BK  23013.13200361  .00100049  00000-0  32638-2 0  9996","COUNTRY_CODE":"US","LAUNCH_DATE":"2019-11-11","APOAPSIS":"475.381"}];
